[{"OBJECT_NAME":"STARLINK-34889","OBJECT_ID":"2025-216AD","EPOCH":"2026-03-10T10:13:07.804128","MEAN_MOTION":15.30208513,"ECCENTRICITY":0.0001289,"INCLINATION":53.1588,"RA_OF_ASC_NODE":329.6584,"ARG_OF_PERICENTER":90.6105,"MEAN_ANOMALY":269.5044,"EPHEMERIS_TYPE":0,"CLASSIFICATION_TYPE":"U","NORAD_CAT_ID":65761,"ELEMENT_SET_NO":999,"REV_AT_EPOCH":2670,"BSTAR":0.00093138,"MEAN_MOTION_DOT":0.00027334,"MEAN_MOTION_DDOT":0},{"OBJECT_NAME":"STARLINK-35330","OBJECT_ID":"2025-218A","EPOCH":"2026-03-10T03:26:11.751648","MEAN_MOTION":15.05663584,"ECCENTRICITY":0.00020809,"INCLINATION":97.6025,"RA_OF_ASC_NODE":293.3313,"ARG_OF_PERICENTER":109.968,"MEAN_ANOMALY":250.1771,"EPHEMERIS_TYPE":0,"CLASSIFICATION_TYPE":"U","NORAD_CAT_ID":65791,"ELEMENT_SET_NO":999,"REV_AT_EPOCH":2503,"BSTAR":0.00019072891,"MEAN_MOTION_DOT":2.693e-5,"MEAN_MOTION_DDOT":0},{"OBJECT_NAME":"STARLINK-35373","OBJECT_ID":"2025-218B","EPOCH":"2026-03-10T12:12:33.215328","MEAN_MOTION":15.0565325,"ECCENTRICITY":0.0001188,"INCLINATION":97.6025,"RA_OF_ASC_NODE":293.7707,"ARG_OF_PERICENTER":73.1209,"MEAN_ANOMALY":287.0148,"EPHEMERIS_TYPE":0,"CLASSIFICATION_TYPE":"U","NORAD_CAT_ID":65792,"ELEMENT_SET_NO":999,"REV_AT_EPOCH":2509,"BSTAR":0.00044431,"MEAN_MOTION_DOT":6.356e-5,"MEAN_MOTION_DDOT":0},{"OBJECT_NAME":"STARLINK-35383","OBJECT_ID":"2025-218C","EPOCH":"2026-03-10T11:48:38.276352","MEAN_MOTION":15.05652333,"ECCENTRICITY":0.0002249,"INCLINATION":97.6035,"RA_OF_ASC_NODE":293.7936,"ARG_OF_PERICENTER":74.4049,"MEAN_ANOMALY":285.7426,"EPHEMERIS_TYPE":0,"CLASSIFICATION_TYPE":"U","NORAD_CAT_ID":65793,"ELEMENT_SET_NO":999,"REV_AT_EPOCH":2509,"BSTAR":0.00025346,"MEAN_MOTION_DOT":3.599e-5,"MEAN_MOTION_DDOT":0},{"OBJECT_NAME":"STARLINK-35378","OBJECT_ID":"2025-218D","EPOCH":"2026-03-10T12:48:26.302464","MEAN_MOTION":15.05651291,"ECCENTRICITY":0.0002146,"INCLINATION":97.602,"RA_OF_ASC_NODE":293.7382,"ARG_OF_PERICENTER":85.3396,"MEAN_ANOMALY":274.8076,"EPHEMERIS_TYPE":0,"CLASSIFICATION_TYPE":"U","NORAD_CAT_ID":65794,"ELEMENT_SET_NO":999,"REV_AT_EPOCH":2509,"BSTAR":0.0002382,"MEAN_MOTION_DOT":3.378e-5,"MEAN_MOTION_DDOT":0},{"OBJECT_NAME":"STARLINK-35406","OBJECT_ID":"2025-218E","EPOCH":"2026-03-10T12:36:28.801440","MEAN_MOTION":15.05652961,"ECCENTRICITY":0.0002774,"INCLINATION":97.6018,"RA_OF_ASC_NODE":293.7487,"ARG_OF_PERICENTER":69.0174,"MEAN_ANOMALY":291.135,"EPHEMERIS_TYPE":0,"CLASSIFICATION_TYPE":"U","NORAD_CAT_ID":65795,"ELEMENT_SET_NO":999,"REV_AT_EPOCH":2509,"BSTAR":0.00036402,"MEAN_MOTION_DOT":5.196e-5,"MEAN_MOTION_DDOT":0},{"OBJECT_NAME":"STARLINK-35390","OBJECT_ID":"2025-218F","EPOCH":"2026-03-10T12:00:36.504864","MEAN_MOTION":15.05637046,"ECCENTRICITY":0.0001957,"INCLINATION":97.6033,"RA_OF_ASC_NODE":293.7828,"ARG_OF_PERICENTER":81.0751,"MEAN_ANOMALY":279.0697,"EPHEMERIS_TYPE":0,"CLASSIFICATION_TYPE":"U","NORAD_CAT_ID":65796,"ELEMENT_SET_NO":999,"REV_AT_EPOCH":2509,"BSTAR":0.0004111,"MEAN_MOTION_DOT":5.874e-5,"MEAN_MOTION_DDOT":0},{"OBJECT_NAME":"STARLINK-35412","OBJECT_ID":"2025-218G","EPOCH":"2026-03-10T13:12:22.715424","MEAN_MOTION":15.05652743,"ECCENTRICITY":0.000232,"INCLINATION":97.6024,"RA_OF_ASC_NODE":293.8708,"ARG_OF_PERICENTER":91.5468,"MEAN_ANOMALY":268.6025,"EPHEMERIS_TYPE":0,"CLASSIFICATION_TYPE":"U","NORAD_CAT_ID":65797,"ELEMENT_SET_NO":999,"REV_AT_EPOCH":2510,"BSTAR":0.00039304,"MEAN_MOTION_DOT":5.616e-5,"MEAN_MOTION_DDOT":0},{"OBJECT_NAME":"STARLINK-35414","OBJECT_ID":"2025-218H","EPOCH":"2026-03-10T12:24:30.902112","MEAN_MOTION":15.05655516,"ECCENTRICITY":0.000147,"INCLINATION":97.6017,"RA_OF_ASC_NODE":293.7595,"ARG_OF_PERICENTER":87.8138,"MEAN_ANOMALY":272.3257,"EPHEMERIS_TYPE":0,"CLASSIFICATION_TYPE":"U","NORAD_CAT_ID":65798,"ELEMENT_SET_NO":999,"REV_AT_EPOCH":2509,"BSTAR":0.00030804,"MEAN_MOTION_DOT":4.387e-5,"MEAN_MOTION_DDOT":0},{"OBJECT_NAME":"STARLINK-35357","OBJECT_ID":"2025-218J","EPOCH":"2026-03-10T12:32:31.139232","MEAN_MOTION":15.05657938,"ECCENTRICITY":0.0001797,"INCLINATION":97.6013,"RA_OF_ASC_NODE":293.7538,"ARG_OF_PERICENTER":88.1995,"MEAN_ANOMALY":271.9438,"EPHEMERIS_TYPE":0,"CLASSIFICATION_TYPE":"U","NORAD_CAT_ID":65799,"ELEMENT_SET_NO":999,"REV_AT_EPOCH":2509,"BSTAR":0.00038281,"MEAN_MOTION_DOT":5.468e-5,"MEAN_MOTION_DDOT":0},{"OBJECT_NAME":"STARLINK-35300","OBJECT_ID":"2025-218K","EPOCH":"2026-03-10T12:56:25.358496","MEAN_MOTION":15.05642331,"ECCENTRICITY":0.0002511,"INCLINATION":97.6017,"RA_OF_ASC_NODE":293.7303,"ARG_OF_PERICENTER":86.0397,"MEAN_ANOMALY":274.1116,"EPHEMERIS_TYPE":0,"CLASSIFICATION_TYPE":"U","NORAD_CAT_ID":65800,"ELEMENT_SET_NO":999,"REV_AT_EPOCH":2509,"BSTAR":0.00047199,"MEAN_MOTION_DOT":6.755e-5,"MEAN_MOTION_DDOT":0},{"OBJECT_NAME":"STARLINK-35296","OBJECT_ID":"2025-218L","EPOCH":"2026-03-10T11:44:39.064128","MEAN_MOTION":15.05668408,"ECCENTRICITY":0.000312,"INCLINATION":97.6013,"RA_OF_ASC_NODE":293.7978,"ARG_OF_PERICENTER":75.3045,"MEAN_ANOMALY":284.8528,"EPHEMERIS_TYPE":0,"CLASSIFICATION_TYPE":"U","NORAD_CAT_ID":65801,"ELEMENT_SET_NO":999,"REV_AT_EPOCH":2509,"BSTAR":0.0008385,"MEAN_MOTION_DOT":0.00012065,"MEAN_MOTION_DDOT":0},{"OBJECT_NAME":"STARLINK-34919","OBJECT_ID":"2025-218M","EPOCH":"2026-03-10T12:08:33.971136","MEAN_MOTION":15.05662078,"ECCENTRICITY":0.0002681,"INCLINATION":97.6034,"RA_OF_ASC_NODE":293.7749,"ARG_OF_PERICENTER":109.1979,"MEAN_ANOMALY":250.9538,"EPHEMERIS_TYPE":0,"CLASSIFICATION_TYPE":"U","NORAD_CAT_ID":65802,"ELEMENT_SET_NO":999,"REV_AT_EPOCH":2509,"BSTAR":0.0004696,"MEAN_MOTION_DOT":6.724e-5,"MEAN_MOTION_DDOT":0},{"OBJECT_NAME":"STARLINK-35286","OBJECT_ID":"2025-218N","EPOCH":"2026-03-10T12:52:25.583808","MEAN_MOTION":15.0565453,"ECCENTRICITY":0.0002643,"INCLINATION":97.6017,"RA_OF_ASC_NODE":293.7345,"ARG_OF_PERICENTER":85.5107,"MEAN_ANOMALY":274.6421,"EPHEMERIS_TYPE":0,"CLASSIFICATION_TYPE":"U","NORAD_CAT_ID":65803,"ELEMENT_SET_NO":999,"REV_AT_EPOCH":2509,"BSTAR":0.00040997,"MEAN_MOTION_DOT":5.861e-5,"MEAN_MOTION_DDOT":0},{"OBJECT_NAME":"STARLINK-35266","OBJECT_ID":"2025-218P","EPOCH":"2026-03-10T12:44:27.160224","MEAN_MOTION":15.05653976,"ECCENTRICITY":0.0002405,"INCLINATION":97.6014,"RA_OF_ASC_NODE":293.7432,"ARG_OF_PERICENTER":85.4399,"MEAN_ANOMALY":274.7103,"EPHEMERIS_TYPE":0,"CLASSIFICATION_TYPE":"U","NORAD_CAT_ID":65804,"ELEMENT_SET_NO":999,"REV_AT_EPOCH":2509,"BSTAR":0.00035217,"MEAN_MOTION_DOT":5.025e-5,"MEAN_MOTION_DDOT":0},{"OBJECT_NAME":"STARLINK-35273","OBJECT_ID":"2025-218Q","EPOCH":"2026-03-10T12:40:28.219296","MEAN_MOTION":15.05658452,"ECCENTRICITY":0.0002133,"INCLINATION":97.602,"RA_OF_ASC_NODE":293.7457,"ARG_OF_PERICENTER":84.8263,"MEAN_ANOMALY":275.3207,"EPHEMERIS_TYPE":0,"CLASSIFICATION_TYPE":"U","NORAD_CAT_ID":65805,"ELEMENT_SET_NO":999,"REV_AT_EPOCH":2509,"BSTAR":0.00045098,"MEAN_MOTION_DOT":6.454e-5,"MEAN_MOTION_DDOT":0},{"OBJECT_NAME":"STARLINK-35047","OBJECT_ID":"2025-218R","EPOCH":"2026-03-10T12:20:33.810144","MEAN_MOTION":15.05660145,"ECCENTRICITY":0.0002214,"INCLINATION":97.6005,"RA_OF_ASC_NODE":293.7647,"ARG_OF_PERICENTER":111.484,"MEAN_ANOMALY":248.6623,"EPHEMERIS_TYPE":0,"CLASSIFICATION_TYPE":"U","NORAD_CAT_ID":65806,"ELEMENT_SET_NO":999,"REV_AT_EPOCH":2509,"BSTAR":0.0014866,"MEAN_MOTION_DOT":0.0002146,"MEAN_MOTION_DDOT":0}]
