STARLINK-34889          
1 65761U 25216AD  26069.42578477  .00027334  00000+0  93138-3 0  9993
2 65761  53.1588 329.6584 0001289  90.6105 269.5044 15.30208513 26708
STARLINK-35330          
1 65791U 25218A   26069.14319157  .00002693  00000+0  19073-3 0  9992
2 65791  97.6025 293.3313 0002080 109.9680 250.1771 15.05663584 25032
STARLINK-35373          
1 65792U 25218B   26069.50871777  .00006356  00000+0  44431-3 0  9990
2 65792  97.6025 293.7707 0001188  73.1209 287.0148 15.05653250 25093
STARLINK-35383          
1 65793U 25218C   26069.49210968  .00003599  00000+0  25346-3 0  9998
2 65793  97.6035 293.7936 0002249  74.4049 285.7426 15.05652333 25099
STARLINK-35378          
1 65794U 25218D   26069.53363776  .00003378  00000+0  23820-3 0  9990
2 65794  97.6020 293.7382 0002146  85.3396 274.8076 15.05651291 25093
STARLINK-35406          
1 65795U 25218E   26069.52533335  .00005196  00000+0  36402-3 0  9990
2 65795  97.6018 293.7487 0002774  69.0174 291.1350 15.05652961 25099
STARLINK-35390          
1 65796U 25218F   26069.50042251  .00005874  00000+0  41110-3 0  9996
2 65796  97.6033 293.7828 0001957  81.0751 279.0697 15.05637046 25099
STARLINK-35412          
1 65797U 25218G   26069.55026291  .00005616  00000+0  39304-3 0  9994
2 65797  97.6024 293.8708 0002320  91.5468 268.6025 15.05652743 25106
STARLINK-35414          
1 65798U 25218H   26069.51702433  .00004387  00000+0  30804-3 0  9990
2 65798  97.6017 293.7595 0001470  87.8138 272.3257 15.05655516 25097
STARLINK-35357          
1 65799U 25218J   26069.52258263  .00005468  00000+0  38281-3 0  9997
2 65799  97.6013 293.7538 0001797  88.1995 271.9438 15.05657938 25094
STARLINK-35300          
1 65800U 25218K   26069.53918239  .00006755  00000+0  47199-3 0  9995
2 65800  97.6017 293.7303 0002511  86.0397 274.1116 15.05642331 25098
STARLINK-35296          
1 65801U 25218L   26069.48934102  .00012065  00000+0  83850-3 0  9992
2 65801  97.6013 293.7978 0003120  75.3045 284.8528 15.05668408 25099
STARLINK-34919          
1 65802U 25218M   26069.50594874  .00006724  00000+0  46960-3 0  9990
2 65802  97.6034 293.7749 0002681 109.1979 250.9538 15.05662078 25094
STARLINK-35286          
1 65803U 25218N   26069.53640722  .00005861  00000+0  40997-3 0  9993
2 65803  97.6017 293.7345 0002643  85.5107 274.6421 15.05654530 25094
STARLINK-35266          
1 65804U 25218P   26069.53086991  .00005025  00000+0  35217-3 0  9997
2 65804  97.6014 293.7432 0002405  85.4399 274.7103 15.05653976 25098
STARLINK-35273          
1 65805U 25218Q   26069.52810439  .00006454  00000+0  45098-3 0  9994
2 65805  97.6020 293.7457 0002133  84.8263 275.3207 15.05658452 25090
STARLINK-35047          
1 65806U 25218R   26069.51428021  .00021460  00000+0  14866-2 0  9998
2 65806  97.6005 293.7647 0002214 111.4840 248.6623 15.05660145 25090
